[{"OBJECT_NAME":"ZHONGXING-2C","OBJECT_ID":"2015-063A","EPOCH":"2026-04-27T01:08:38.393376","MEAN_MOTION":1.00272363,"ECCENTRICITY":0.0006365,"INCLINATION":0.1426,"RA_OF_ASC_NODE":92.5076,"ARG_OF_PERICENTER":111.1117,"MEAN_ANOMALY":132.0309,"EPHEMERIS_TYPE":0,"CLASSIFICATION_TYPE":"U","NORAD_CAT_ID":41021,"ELEMENT_SET_NO":999,"REV_AT_EPOCH":3846,"BSTAR":0,"MEAN_MOTION_DOT":-3.34e-6,"MEAN_MOTION_DDOT":0},{"OBJECT_NAME":"GSAT-15","OBJECT_ID":"2015-065A","EPOCH":"2026-04-27T04:51:21.769920","MEAN_MOTION":1.00271901,"ECCENTRICITY":0.0003747,"INCLINATION":0.0676,"RA_OF_ASC_NODE":257.0168,"ARG_OF_PERICENTER":145.563,"MEAN_ANOMALY":338.9662,"EPHEMERIS_TYPE":0,"CLASSIFICATION_TYPE":"U","NORAD_CAT_ID":41028,"ELEMENT_SET_NO":999,"REV_AT_EPOCH":3828,"BSTAR":0,"MEAN_MOTION_DOT":-2.68e-6,"MEAN_MOTION_DDOT":0},{"OBJECT_NAME":"BADR-7 (ARABSAT-6B)","OBJECT_ID":"2015-065B","EPOCH":"2026-04-27T05:04:38.648352","MEAN_MOTION":1.0027111,"ECCENTRICITY":0.0002331,"INCLINATION":0.031,"RA_OF_ASC_NODE":235.4128,"ARG_OF_PERICENTER":357.5511,"MEAN_ANOMALY":84.3831,"EPHEMERIS_TYPE":0,"CLASSIFICATION_TYPE":"U","NORAD_CAT_ID":41029,"ELEMENT_SET_NO":999,"REV_AT_EPOCH":3825,"BSTAR":0,"MEAN_MOTION_DOT":1.35e-6,"MEAN_MOTION_DDOT":0},{"OBJECT_NAME":"LAOSAT 1","OBJECT_ID":"2015-067A","EPOCH":"2026-04-26T22:44:04.502112","MEAN_MOTION":1.00271266,"ECCENTRICITY":0.0002304,"INCLINATION":0.0146,"RA_OF_ASC_NODE":238.3338,"ARG_OF_PERICENTER":123.9972,"MEAN_ANOMALY":322.128,"EPHEMERIS_TYPE":0,"CLASSIFICATION_TYPE":"U","NORAD_CAT_ID":41034,"ELEMENT_SET_NO":999,"REV_AT_EPOCH":3834,"BSTAR":0,"MEAN_MOTION_DOT":0,"MEAN_MOTION_DDOT":0},{"OBJECT_NAME":"TELSTAR 12V","OBJECT_ID":"2015-068A","EPOCH":"2026-04-27T05:28:38.742816","MEAN_MOTION":1.00271736,"ECCENTRICITY":0.0002483,"INCLINATION":0.0071,"RA_OF_ASC_NODE":195.1175,"ARG_OF_PERICENTER":197.6947,"MEAN_ANOMALY":249.57,"EPHEMERIS_TYPE":0,"CLASSIFICATION_TYPE":"U","NORAD_CAT_ID":41036,"ELEMENT_SET_NO":999,"REV_AT_EPOCH":3811,"BSTAR":0,"MEAN_MOTION_DOT":-1.29e-6,"MEAN_MOTION_DDOT":0},{"OBJECT_NAME":"ELEKTRO-L 2","OBJECT_ID":"2015-074A","EPOCH":"2026-04-27T01:28:33.725280","MEAN_MOTION":1.00270643,"ECCENTRICITY":0.0002271,"INCLINATION":6.5682,"RA_OF_ASC_NODE":71.1388,"ARG_OF_PERICENTER":256.8337,"MEAN_ANOMALY":254.7105,"EPHEMERIS_TYPE":0,"CLASSIFICATION_TYPE":"U","NORAD_CAT_ID":41105,"ELEMENT_SET_NO":999,"REV_AT_EPOCH":3799,"BSTAR":0,"MEAN_MOTION_DOT":-1.23e-6,"MEAN_MOTION_DDOT":0},{"OBJECT_NAME":"COSMOS 2513","OBJECT_ID":"2015-075A","EPOCH":"2026-04-26T12:14:17.655648","MEAN_MOTION":1.00271433,"ECCENTRICITY":0.00029609,"INCLINATION":0.0618,"RA_OF_ASC_NODE":90.9998,"ARG_OF_PERICENTER":307.0902,"MEAN_ANOMALY":80.2398,"EPHEMERIS_TYPE":0,"CLASSIFICATION_TYPE":"U","NORAD_CAT_ID":41121,"ELEMENT_SET_NO":999,"REV_AT_EPOCH":3803,"BSTAR":0,"MEAN_MOTION_DOT":-1.5e-6,"MEAN_MOTION_DDOT":0},{"OBJECT_NAME":"EXPRESS-AMU1","OBJECT_ID":"2015-082A","EPOCH":"2026-04-27T04:56:38.684256","MEAN_MOTION":1.00269043,"ECCENTRICITY":0.0003003,"INCLINATION":0.0175,"RA_OF_ASC_NODE":245.9113,"ARG_OF_PERICENTER":138.9683,"MEAN_ANOMALY":300.5772,"EPHEMERIS_TYPE":0,"CLASSIFICATION_TYPE":"U","NORAD_CAT_ID":41191,"ELEMENT_SET_NO":999,"REV_AT_EPOCH":3775,"BSTAR":0,"MEAN_MOTION_DOT":0,"MEAN_MOTION_DDOT":0},{"OBJECT_NAME":"GAOFEN-4","OBJECT_ID":"2015-083A","EPOCH":"2026-04-25T14:06:41.986944","MEAN_MOTION":1.00267707,"ECCENTRICITY":0.00032035,"INCLINATION":0.3731,"RA_OF_ASC_NODE":82.6392,"ARG_OF_PERICENTER":131.5552,"MEAN_ANOMALY":316.745,"EPHEMERIS_TYPE":0,"CLASSIFICATION_TYPE":"U","NORAD_CAT_ID":41194,"ELEMENT_SET_NO":999,"REV_AT_EPOCH":3800,"BSTAR":0,"MEAN_MOTION_DOT":-3.48e-6,"MEAN_MOTION_DDOT":0},{"OBJECT_NAME":"BELINTERSAT-1","OBJECT_ID":"2016-001A","EPOCH":"2026-04-27T04:40:38.534880","MEAN_MOTION":1.00269716,"ECCENTRICITY":0.000218,"INCLINATION":0.0101,"RA_OF_ASC_NODE":232.1982,"ARG_OF_PERICENTER":136.3991,"MEAN_ANOMALY":328.2644,"EPHEMERIS_TYPE":0,"CLASSIFICATION_TYPE":"U","NORAD_CAT_ID":41238,"ELEMENT_SET_NO":999,"REV_AT_EPOCH":3772,"BSTAR":0,"MEAN_MOTION_DOT":9.7e-7,"MEAN_MOTION_DDOT":0},{"OBJECT_NAME":"IRNSS-1E","OBJECT_ID":"2016-003A","EPOCH":"2026-04-21T21:23:25.861920","MEAN_MOTION":1.00277854,"ECCENTRICITY":0.00172458,"INCLINATION":33.1155,"RA_OF_ASC_NODE":60.561,"ARG_OF_PERICENTER":183.4571,"MEAN_ANOMALY":38.526,"EPHEMERIS_TYPE":0,"CLASSIFICATION_TYPE":"U","NORAD_CAT_ID":41241,"ELEMENT_SET_NO":999,"REV_AT_EPOCH":3751,"BSTAR":0,"MEAN_MOTION_DOT":-3.02e-6,"MEAN_MOTION_DDOT":0},{"OBJECT_NAME":"EUTELSAT 9B","OBJECT_ID":"2016-005A","EPOCH":"2026-04-27T05:12:38.610720","MEAN_MOTION":1.00273551,"ECCENTRICITY":0.0003404,"INCLINATION":0.0767,"RA_OF_ASC_NODE":72.8414,"ARG_OF_PERICENTER":287.1866,"MEAN_ANOMALY":302.3394,"EPHEMERIS_TYPE":0,"CLASSIFICATION_TYPE":"U","NORAD_CAT_ID":41310,"ELEMENT_SET_NO":999,"REV_AT_EPOCH":3760,"BSTAR":0,"MEAN_MOTION_DOT":5.2e-7,"MEAN_MOTION_DDOT":0},{"OBJECT_NAME":"SES-9","OBJECT_ID":"2016-013A","EPOCH":"2026-04-27T00:21:02.702304","MEAN_MOTION":1.00272708,"ECCENTRICITY":0.000219,"INCLINATION":0.016,"RA_OF_ASC_NODE":282.7094,"ARG_OF_PERICENTER":137.1942,"MEAN_ANOMALY":268.6545,"EPHEMERIS_TYPE":0,"CLASSIFICATION_TYPE":"U","NORAD_CAT_ID":41380,"ELEMENT_SET_NO":999,"REV_AT_EPOCH":3692,"BSTAR":0,"MEAN_MOTION_DOT":-3.56e-6,"MEAN_MOTION_DDOT":0},{"OBJECT_NAME":"EUTELSAT 65 WEST A","OBJECT_ID":"2016-014A","EPOCH":"2026-04-27T04:35:38.533344","MEAN_MOTION":1.00272739,"ECCENTRICITY":0.0002246,"INCLINATION":0.06,"RA_OF_ASC_NODE":31.9051,"ARG_OF_PERICENTER":355.7712,"MEAN_ANOMALY":191.2229,"EPHEMERIS_TYPE":0,"CLASSIFICATION_TYPE":"U","NORAD_CAT_ID":41382,"ELEMENT_SET_NO":999,"REV_AT_EPOCH":3701,"BSTAR":0,"MEAN_MOTION_DOT":-2.87e-6,"MEAN_MOTION_DDOT":0},{"OBJECT_NAME":"IRNSS-1G","OBJECT_ID":"2016-027A","EPOCH":"2026-04-26T21:01:44.316768","MEAN_MOTION":1.00275749,"ECCENTRICITY":0.0005896,"INCLINATION":5.0697,"RA_OF_ASC_NODE":98.6791,"ARG_OF_PERICENTER":345.6173,"MEAN_ANOMALY":215.6314,"EPHEMERIS_TYPE":0,"CLASSIFICATION_TYPE":"U","NORAD_CAT_ID":41469,"ELEMENT_SET_NO":999,"REV_AT_EPOCH":3666,"BSTAR":0,"MEAN_MOTION_DOT":-3.4e-6,"MEAN_MOTION_DDOT":0},{"OBJECT_NAME":"JCSAT-2B","OBJECT_ID":"2016-028A","EPOCH":"2026-04-26T21:08:43.647072","MEAN_MOTION":1.00267754,"ECCENTRICITY":0.0001131,"INCLINATION":0.0156,"RA_OF_ASC_NODE":234.1532,"ARG_OF_PERICENTER":159.6036,"MEAN_ANOMALY":292.3011,"EPHEMERIS_TYPE":0,"CLASSIFICATION_TYPE":"U","NORAD_CAT_ID":41471,"ELEMENT_SET_NO":999,"REV_AT_EPOCH":3661,"BSTAR":0,"MEAN_MOTION_DOT":0,"MEAN_MOTION_DDOT":0}]
