ZHONGXING-2C            
1 41021U 15063A   26117.04766659 -.00000334  00000+0  00000+0 0  9992
2 41021   0.1426  92.5076 0006365 111.1117 132.0309  1.00272363 38468
GSAT-15                 
1 41028U 15065A   26117.20233530 -.00000268  00000+0  00000+0 0  9992
2 41028   0.0676 257.0168 0003747 145.5630 338.9662  1.00271901 38289
BADR-7 (ARABSAT-6B)     
1 41029U 15065B   26117.21155843  .00000135  00000+0  00000+0 0  9996
2 41029   0.0310 235.4128 0002331 357.5511  84.3831  1.00271110 38251
LAOSAT 1                
1 41034U 15067A   26116.94727433  .00000000  00000+0  00000+0 0  9994
2 41034   0.0146 238.3338 0002304 123.9972 322.1280  1.00271266 38348
TELSTAR 12V             
1 41036U 15068A   26117.22822619 -.00000129  00000+0  00000+0 0  9994
2 41036   0.0071 195.1175 0002483 197.6947 249.5700  1.00271736 38110
ELEKTRO-L 2             
1 41105U 15074A   26117.06150145 -.00000123  00000+0  00000+0 0  9992
2 41105   6.5682  71.1388 0002271 256.8337 254.7105  1.00270643 37999
COSMOS 2513             
1 41121U 15075A   26116.50992657 -.00000150  00000+0  00000+0 0  9991
2 41121   0.0618  90.9998 0002960 307.0902  80.2398  1.00271433 38033
EXPRESS-AMU1            
1 41191U 15082A   26117.20600329  .00000000  00000+0  00000+0 0  9999
2 41191   0.0175 245.9113 0003003 138.9683 300.5772  1.00269043 37751
GAOFEN-4                
1 41194U 15083A   26115.58798596 -.00000348  00000+0  00000+0 0  9992
2 41194   0.3731  82.6392 0003203 131.5552 316.7450  1.00267707 38002
BELINTERSAT-1           
1 41238U 16001A   26117.19489045  .00000097  00000+0  00000+0 0  9997
2 41238   0.0101 232.1982 0002180 136.3991 328.2644  1.00269716 37722
IRNSS-1E                
1 41241U 16003A   26111.89127155 -.00000302  00000+0  00000+0 0  9995
2 41241  33.1155  60.5610 0017245 183.4571  38.5260  1.00277854 37512
EUTELSAT 9B             
1 41310U 16005A   26117.21711355  .00000052  00000+0  00000+0 0  9998
2 41310   0.0767  72.8414 0003404 287.1866 302.3394  1.00273551 37600
SES-9                   
1 41380U 16013A   26117.01461461 -.00000356  00000+0  00000+0 0  9990
2 41380   0.0160 282.7094 0002190 137.1942 268.6545  1.00272708 36929
EUTELSAT 65 WEST A      
1 41382U 16014A   26117.19141821 -.00000287  00000+0  00000+0 0  9990
2 41382   0.0600  31.9051 0002246 355.7712 191.2229  1.00272739 37017
IRNSS-1G                
1 41469U 16027A   26116.87620737 -.00000340  00000+0  00000+0 0  9992
2 41469   5.0697  98.6791 0005896 345.6173 215.6314  1.00275749 36668
JCSAT-2B                
1 41471U 16028A   26116.88106073  .00000000  00000+0  00000+0 0  9991
2 41471   0.0156 234.1532 0001131 159.6036 292.3011  1.00267754 36613
